STARLINK-36479          
1 67352U 26003U   26033.50002314  .00107010  00000+0  18105-2 0  9998
2 67352  42.9997  67.2735 0001269 280.1098 133.7659 15.50493673  5014
STARLINK-36474          
1 67353U 26003V   26033.50002314 -.00216516  00000+0 -37678-2 0  9999
2 67353  42.9994  67.2697 0001685 269.9283 145.7344 15.50725176  5012
STARLINK-36448          
1 67354U 26003W   26033.50002314 -.00084424  00000+0 -14455-2 0  9999
2 67354  42.9995  67.2544 0001726 263.4192 158.0124 15.50641776  5015
STARLINK-36477          
1 67355U 26003X   26033.50002314 -.00081774  00000+0 -13995-2 0  9993
2 67355  42.9996  67.2642 0001503 268.7141 148.8775 15.50642327  5002
STARLINK-36429          
1 67356U 26003Y   26033.50002314 -.00209592  00000+0 -36441-2 0  9995
2 67356  42.9995  67.2600 0001617 271.7176 147.7707 15.50724276  5001
STARLINK-36456          
1 67357U 26003Z   26033.50002314 -.00083016  00000+0 -14210-2 0  9997
2 67357  42.9995  67.2491 0001522 267.1753 156.1721 15.50642337  5013
STARLINK-36466          
1 67358U 26003AA  26033.50002314 -.00108022  00000+0 -18552-2 0  9996
2 67358  42.9995  67.2448 0001685 274.8241 150.4228 15.50665773  5011
STARLINK-36499          
1 67359U 26003AB  26033.50002314 -.00097380  00000+0 -16706-2 0  9990
2 67359  42.9996  67.2392 0001553 266.0779 161.1046 15.50649376  5012
STARLINK-36469          
1 67360U 26003AC  26033.50002314 -.00059552  00000+0 -10153-2 0  9991
2 67360  42.9996  67.2343 0001748 270.5415 158.5529 15.50625528  5012
STARLINK-35306          
1 67361U 26003AD  26033.50002314  .00125539  00000+0  21150-2 0  9998
2 67361  42.9998  67.2291 0001881 272.5108 158.4733 15.50532508  4960
STARLINK-36428          
1 67362U 26003AE  26033.50002314 -.00105148  00000+0 -18094-2 0  9998
2 67362  42.9997  67.2237 0002096 283.6010 149.4674 15.50596328  5015
TWILIGHT A              
1 67363U 26004A   26033.48433752  .00005626  00000+0  63359-3 0  9994
2 67363  97.7991  34.2553 0007816 214.7048 145.3659 14.87005962  3254
