CCSDS_OMM_VERS = 2.0
CREATION_DATE  = 
ORIGINATOR     = 

OBJECT_NAME    = STARLINK-36479
OBJECT_ID      = 2026-003U
CENTER_NAME    = EARTH
REF_FRAME      = TEME
TIME_SYSTEM    = UTC
MEAN_ELEMENT_THEORY = SGP/SGP4

EPOCH          = 2026-02-02T12:00:01.999296
MEAN_MOTION    = 15.50493673
ECCENTRICITY   = .0001269
INCLINATION    = 42.9997
RA_OF_ASC_NODE = 67.2735
ARG_OF_PERICENTER = 280.1098
MEAN_ANOMALY   = 133.7659

EPHEMERIS_TYPE = 0
CLASSIFICATION_TYPE = U
NORAD_CAT_ID   = 67352
ELEMENT_SET_NO = 999
REV_AT_EPOCH   = 501
BSTAR          = .18105E-2
MEAN_MOTION_DOT = .10701E-2
MEAN_MOTION_DDOT = 0

CCSDS_OMM_VERS = 2.0
CREATION_DATE  = 
ORIGINATOR     = 

OBJECT_NAME    = STARLINK-36474
OBJECT_ID      = 2026-003V
CENTER_NAME    = EARTH
REF_FRAME      = TEME
TIME_SYSTEM    = UTC
MEAN_ELEMENT_THEORY = SGP/SGP4

EPOCH          = 2026-02-02T12:00:01.999296
MEAN_MOTION    = 15.50725176
ECCENTRICITY   = .0001685
INCLINATION    = 42.9994
RA_OF_ASC_NODE = 67.2697
ARG_OF_PERICENTER = 269.9283
MEAN_ANOMALY   = 145.7344

EPHEMERIS_TYPE = 0
CLASSIFICATION_TYPE = U
NORAD_CAT_ID   = 67353
ELEMENT_SET_NO = 999
REV_AT_EPOCH   = 501
BSTAR          = -.37678E-2
MEAN_MOTION_DOT = -.216516E-2
MEAN_MOTION_DDOT = 0

CCSDS_OMM_VERS = 2.0
CREATION_DATE  = 
ORIGINATOR     = 

OBJECT_NAME    = STARLINK-36448
OBJECT_ID      = 2026-003W
CENTER_NAME    = EARTH
REF_FRAME      = TEME
TIME_SYSTEM    = UTC
MEAN_ELEMENT_THEORY = SGP/SGP4

EPOCH          = 2026-02-02T12:00:01.999296
MEAN_MOTION    = 15.50641776
ECCENTRICITY   = .0001726
INCLINATION    = 42.9995
RA_OF_ASC_NODE = 67.2544
ARG_OF_PERICENTER = 263.4192
MEAN_ANOMALY   = 158.0124

EPHEMERIS_TYPE = 0
CLASSIFICATION_TYPE = U
NORAD_CAT_ID   = 67354
ELEMENT_SET_NO = 999
REV_AT_EPOCH   = 501
BSTAR          = -.14455E-2
MEAN_MOTION_DOT = -.84424E-3
MEAN_MOTION_DDOT = 0

CCSDS_OMM_VERS = 2.0
CREATION_DATE  = 
ORIGINATOR     = 

OBJECT_NAME    = STARLINK-36477
OBJECT_ID      = 2026-003X
CENTER_NAME    = EARTH
REF_FRAME      = TEME
TIME_SYSTEM    = UTC
MEAN_ELEMENT_THEORY = SGP/SGP4

EPOCH          = 2026-02-02T12:00:01.999296
MEAN_MOTION    = 15.50642327
ECCENTRICITY   = .0001503
INCLINATION    = 42.9996
RA_OF_ASC_NODE = 67.2642
ARG_OF_PERICENTER = 268.7141
MEAN_ANOMALY   = 148.8775

EPHEMERIS_TYPE = 0
CLASSIFICATION_TYPE = U
NORAD_CAT_ID   = 67355
ELEMENT_SET_NO = 999
REV_AT_EPOCH   = 500
BSTAR          = -.13995E-2
MEAN_MOTION_DOT = -.81774E-3
MEAN_MOTION_DDOT = 0

CCSDS_OMM_VERS = 2.0
CREATION_DATE  = 
ORIGINATOR     = 

OBJECT_NAME    = STARLINK-36429
OBJECT_ID      = 2026-003Y
CENTER_NAME    = EARTH
REF_FRAME      = TEME
TIME_SYSTEM    = UTC
MEAN_ELEMENT_THEORY = SGP/SGP4

EPOCH          = 2026-02-02T12:00:01.999296
MEAN_MOTION    = 15.50724276
ECCENTRICITY   = .0001617
INCLINATION    = 42.9995
RA_OF_ASC_NODE = 67.2600
ARG_OF_PERICENTER = 271.7176
MEAN_ANOMALY   = 147.7707

EPHEMERIS_TYPE = 0
CLASSIFICATION_TYPE = U
NORAD_CAT_ID   = 67356
ELEMENT_SET_NO = 999
REV_AT_EPOCH   = 500
BSTAR          = -.36441E-2
MEAN_MOTION_DOT = -.209592E-2
MEAN_MOTION_DDOT = 0

CCSDS_OMM_VERS = 2.0
CREATION_DATE  = 
ORIGINATOR     = 

OBJECT_NAME    = STARLINK-36456
OBJECT_ID      = 2026-003Z
CENTER_NAME    = EARTH
REF_FRAME      = TEME
TIME_SYSTEM    = UTC
MEAN_ELEMENT_THEORY = SGP/SGP4

EPOCH          = 2026-02-02T12:00:01.999296
MEAN_MOTION    = 15.50642337
ECCENTRICITY   = .0001522
INCLINATION    = 42.9995
RA_OF_ASC_NODE = 67.2491
ARG_OF_PERICENTER = 267.1753
MEAN_ANOMALY   = 156.1721

EPHEMERIS_TYPE = 0
CLASSIFICATION_TYPE = U
NORAD_CAT_ID   = 67357
ELEMENT_SET_NO = 999
REV_AT_EPOCH   = 501
BSTAR          = -.1421E-2
MEAN_MOTION_DOT = -.83016E-3
MEAN_MOTION_DDOT = 0

CCSDS_OMM_VERS = 2.0
CREATION_DATE  = 
ORIGINATOR     = 

OBJECT_NAME    = STARLINK-36466
OBJECT_ID      = 2026-003AA
CENTER_NAME    = EARTH
REF_FRAME      = TEME
TIME_SYSTEM    = UTC
MEAN_ELEMENT_THEORY = SGP/SGP4

EPOCH          = 2026-02-02T12:00:01.999296
MEAN_MOTION    = 15.50665773
ECCENTRICITY   = .0001685
INCLINATION    = 42.9995
RA_OF_ASC_NODE = 67.2448
ARG_OF_PERICENTER = 274.8241
MEAN_ANOMALY   = 150.4228

EPHEMERIS_TYPE = 0
CLASSIFICATION_TYPE = U
NORAD_CAT_ID   = 67358
ELEMENT_SET_NO = 999
REV_AT_EPOCH   = 501
BSTAR          = -.18552E-2
MEAN_MOTION_DOT = -.108022E-2
MEAN_MOTION_DDOT = 0

CCSDS_OMM_VERS = 2.0
CREATION_DATE  = 
ORIGINATOR     = 

OBJECT_NAME    = STARLINK-36499
OBJECT_ID      = 2026-003AB
CENTER_NAME    = EARTH
REF_FRAME      = TEME
TIME_SYSTEM    = UTC
MEAN_ELEMENT_THEORY = SGP/SGP4

EPOCH          = 2026-02-02T12:00:01.999296
MEAN_MOTION    = 15.50649376
ECCENTRICITY   = .0001553
INCLINATION    = 42.9996
RA_OF_ASC_NODE = 67.2392
ARG_OF_PERICENTER = 266.0779
MEAN_ANOMALY   = 161.1046

EPHEMERIS_TYPE = 0
CLASSIFICATION_TYPE = U
NORAD_CAT_ID   = 67359
ELEMENT_SET_NO = 999
REV_AT_EPOCH   = 501
BSTAR          = -.16706E-2
MEAN_MOTION_DOT = -.9738E-3
MEAN_MOTION_DDOT = 0

CCSDS_OMM_VERS = 2.0
CREATION_DATE  = 
ORIGINATOR     = 

OBJECT_NAME    = STARLINK-36469
OBJECT_ID      = 2026-003AC
CENTER_NAME    = EARTH
REF_FRAME      = TEME
TIME_SYSTEM    = UTC
MEAN_ELEMENT_THEORY = SGP/SGP4

EPOCH          = 2026-02-02T12:00:01.999296
MEAN_MOTION    = 15.50625528
ECCENTRICITY   = .0001748
INCLINATION    = 42.9996
RA_OF_ASC_NODE = 67.2343
ARG_OF_PERICENTER = 270.5415
MEAN_ANOMALY   = 158.5529

EPHEMERIS_TYPE = 0
CLASSIFICATION_TYPE = U
NORAD_CAT_ID   = 67360
ELEMENT_SET_NO = 999
REV_AT_EPOCH   = 501
BSTAR          = -.10153E-2
MEAN_MOTION_DOT = -.59552E-3
MEAN_MOTION_DDOT = 0

CCSDS_OMM_VERS = 2.0
CREATION_DATE  = 
ORIGINATOR     = 

OBJECT_NAME    = STARLINK-35306
OBJECT_ID      = 2026-003AD
CENTER_NAME    = EARTH
REF_FRAME      = TEME
TIME_SYSTEM    = UTC
MEAN_ELEMENT_THEORY = SGP/SGP4

EPOCH          = 2026-02-02T12:00:01.999296
MEAN_MOTION    = 15.50532508
ECCENTRICITY   = .0001881
INCLINATION    = 42.9998
RA_OF_ASC_NODE = 67.2291
ARG_OF_PERICENTER = 272.5108
MEAN_ANOMALY   = 158.4733

EPHEMERIS_TYPE = 0
CLASSIFICATION_TYPE = U
NORAD_CAT_ID   = 67361
ELEMENT_SET_NO = 999
REV_AT_EPOCH   = 496
BSTAR          = .2115E-2
MEAN_MOTION_DOT = .125539E-2
MEAN_MOTION_DDOT = 0

CCSDS_OMM_VERS = 2.0
CREATION_DATE  = 
ORIGINATOR     = 

OBJECT_NAME    = STARLINK-36428
OBJECT_ID      = 2026-003AE
CENTER_NAME    = EARTH
REF_FRAME      = TEME
TIME_SYSTEM    = UTC
MEAN_ELEMENT_THEORY = SGP/SGP4

EPOCH          = 2026-02-02T12:00:01.999296
MEAN_MOTION    = 15.50596328
ECCENTRICITY   = .0002096
INCLINATION    = 42.9997
RA_OF_ASC_NODE = 67.2237
ARG_OF_PERICENTER = 283.6010
MEAN_ANOMALY   = 149.4674

EPHEMERIS_TYPE = 0
CLASSIFICATION_TYPE = U
NORAD_CAT_ID   = 67362
ELEMENT_SET_NO = 999
REV_AT_EPOCH   = 501
BSTAR          = -.18094E-2
MEAN_MOTION_DOT = -.105148E-2
MEAN_MOTION_DDOT = 0

CCSDS_OMM_VERS = 2.0
CREATION_DATE  = 
ORIGINATOR     = 

OBJECT_NAME    = TWILIGHT A
OBJECT_ID      = 2026-004A
CENTER_NAME    = EARTH
REF_FRAME      = TEME
TIME_SYSTEM    = UTC
MEAN_ELEMENT_THEORY = SGP/SGP4

EPOCH          = 2026-02-02T11:37:26.761728
MEAN_MOTION    = 14.87005962
ECCENTRICITY   = .0007816
INCLINATION    = 97.7991
RA_OF_ASC_NODE = 34.2553
ARG_OF_PERICENTER = 214.7048
MEAN_ANOMALY   = 145.3659

EPHEMERIS_TYPE = 0
CLASSIFICATION_TYPE = U
NORAD_CAT_ID   = 67363
ELEMENT_SET_NO = 999
REV_AT_EPOCH   = 325
BSTAR          = .63359E-3
MEAN_MOTION_DOT = .5626E-4
MEAN_MOTION_DDOT = 0

